BEIDOU-2 IGSO-1 (C06)   
1 36828U 10036A   26059.80362605 -.00000169  00000+0  00000+0 0  9994
2 36828  54.2920 163.9431 0053920 219.0373 170.2747  1.00252838 57012
BEIDOU-2 G4 (C04)       
1 37210U 10057A   26060.51151228 -.00000129  00000+0  00000+0 0  9996
2 37210   3.3789  69.5594 0009285 209.6924 224.1944  1.00271933 56215
BEIDOU-2 IGSO-2 (C07)   
1 37256U 10068A   26058.35181565 -.00000158  00000+0  00000+0 0  9996
2 37256  47.7414 273.1895 0047378 212.9968 264.9944  1.00260216 55694
BEIDOU-2 IGSO-3 (C08)   
1 37384U 11013A   26058.90884667 -.00000154  00000+0  00000+0 0  9999
2 37384  62.2642  41.1818 0035029 190.8154 358.7681  1.00294022 54567
BEIDOU-2 IGSO-4 (C09)   
1 37763U 11038A   26059.75739034 -.00000138  00000+0  00000+0 0  9990
2 37763  54.5891 166.6527 0154480 231.0042 128.1008  1.00265982 53569
BEIDOU-2 IGSO-5 (C10)   
1 37948U 11073A   26060.51498981 -.00000133  00000+0  00000+0 0  9998
2 37948  47.8731 272.8747 0108571 221.0681 305.9392  1.00272949 52059
BEIDOU-2 G5 (C05)       
1 38091U 12008A   26060.45884630  .00000039  00000+0  00000+0 0  9994
2 38091   3.3045  70.3230 0014171 249.3487  63.5063  1.00275176 51282
BEIDOU-2 M3 (C11)       
1 38250U 12018A   26058.64934387 -.00000047  00000+0  00000+0 0  9995
2 38250  55.8510 308.5694 0021667 279.4287  80.3821  1.86229864 93909
BEIDOU-2 M4 (C12)       
1 38251U 12018B   26058.58148709 -.00000045  00000+0  00000+0 0  9992
2 38251  55.7521 307.7944 0013045 286.0559  73.8564  1.86229541 93900
BEIDOU-2 M6 (C14)       
1 38775U 12050B   26058.82871498  .00000003  00000+0  00000+0 0  9997
2 38775  56.4488  66.5090 0013848 341.4819  18.5089  1.86230827 91274
BEIDOU-2 G6 (C02)       
1 38953U 12059A   26060.39245933 -.00000191  00000+0  00000+0 0  9997
2 38953   4.1479  74.6759 0010310 301.6036   8.1876  1.00269517 48820
BEIDOU-3S IGSO-1S (C31) 
1 40549U 15019A   26059.61069309 -.00000157  00000+0  00000+0 0  9996
2 40549  49.3974 296.7700 0035838 190.4090 347.5851  1.00274522 39986
BEIDOU-3S M2S (C58)     
1 40748U 15037A   26059.85953472 -.00000044  00000+0  00000+0 0  9991
2 40748  54.9658 305.7779 0009018 278.2696  81.6874  1.86231837 72101
BEIDOU-3S M1S (C57)     
1 40749U 15037B   26060.08018090 -.00000045  00000+0  00000+0 0  9998
2 40749  54.9622 305.7581 0004531  29.0450 331.0396  1.86253680 72111
BEIDOU-2 IGSO-6 (C13)   
1 41434U 16021A   26060.39505934 -.00000141  00000+0  00000+0 0  9993
2 41434  60.0821  39.1080 0059813 233.4424 124.5580  1.00278678 36399
BEIDOU-2 G7 (C03)       
1 41586U 16037A   26060.46907300 -.00000371  00000+0  00000+0 0  9994
2 41586   1.4538  68.1480 0007327 341.2540  29.2606  1.00268635  5812
BEIDOU-3 M1 (C19)       
1 43001U 17069A   26059.66807218  .00000002  00000+0  00000+0 0  9991
2 43001  56.5977  66.6575 0012364 309.3656  50.5651  1.86230790 56584
BEIDOU-3 M2 (C20)       
1 43002U 17069B   26059.60656196  .00000002  00000+0  00000+0 0  9993
2 43002  56.5962  66.6958 0009614 328.4863  31.4966  1.86230525 56572
BEIDOU-3 M7 (C27)       
1 43107U 18003A   26059.88555953 -.00000046  00000+0  00000+0 0  9996
2 43107  54.4241 306.0930 0004590  70.5904 289.5176  1.86232253 55337
BEIDOU-3 M8 (C28)       
1 43108U 18003B   26059.83108493 -.00000046  00000+0  00000+0 0  9995
2 43108  54.4168 306.0781 0003315 291.7790  68.2441  1.86230786 55341
BEIDOU-3 M4 (C22)       
1 43207U 18018A   26060.27328956 -.00000001  00000+0  00000+0 0  9990
2 43207  56.5572  66.7052 0006849 350.3261   9.6997  1.86230768 54731
BEIDOU-3 M3 (C21)       
1 43208U 18018B   26060.33973838 -.00000001  00000+0  00000+0 0  9993
2 43208  56.5566  66.7071 0009892 319.3285  40.6363  1.86230859 54731
BEIDOU-3 M9 (C29)       
1 43245U 18029A   26060.01989255 -.00000042  00000+0  00000+0 0  9996
2 43245  54.2912 303.7325 0000921  20.5005 339.5630  1.86227979 53884
BEIDOU-3 M10 (C30)      
1 43246U 18029B   26059.95478111 -.00000042  00000+0  00000+0 0  9992
2 43246  54.2888 303.7627 0005048  21.6630 338.4180  1.86228901 53865
BEIDOU-2 IGSO-7 (C16)   
1 43539U 18057A   26056.73984515 -.00000161  00000+0  00000+0 0  9993
2 43539  55.1859 164.0342 0099962 236.5988 133.5173  1.00284731 28015
BEIDOU-3 M5 (C23)       
1 43581U 18062A   26059.64194559 -.00000030  00000+0  00000+0 0  9995
2 43581  54.0883 185.9939 0002142 311.6058  48.3275  1.86228457 51613
BEIDOU-3 M6 (C24)       
1 43582U 18062B   26059.50483865 -.00000029  00000+0  00000+0 0  9990
2 43582  54.0879 185.9878 0006295  43.8159 316.1858  1.86227508 51619
BEIDOU-3 M12 (C26)      
1 43602U 18067A   26060.51717887 -.00000032  00000+0  00000+0 0  9999
2 43602  54.1831 184.6910 0008635  40.1631 319.8532  1.86227647 51117
BEIDOU-3 M11 (C25)      
1 43603U 18067B   26059.57799784 -.00000030  00000+0  00000+0 0  9998
2 43603  54.1806 184.6868 0005019  34.9301 325.0559  1.86227045 51121
BEIDOU-3 M13 (C32)      
1 43622U 18072A   26060.07090161 -.00000001  00000+0  00000+0 0  9993
2 43622  56.5296  66.2261 0008837 307.1015  52.8563  1.86230830 50643
BEIDOU-3 M14 (C33)      
1 43623U 18072B   26059.39940667  .00000002  00000+0  00000+0 0  9992
2 43623  56.5307  66.2423 0006323 328.2609  31.7411  1.86230836 50620
